CCSDS_OMM_VERS = 2.0
CREATION_DATE  = 
ORIGINATOR     = 

OBJECT_NAME    = H-2A R/B
OBJECT_ID      = 2012-025E
CENTER_NAME    = EARTH
REF_FRAME      = TEME
TIME_SYSTEM    = UTC
MEAN_ELEMENT_THEORY = SGP/SGP4

EPOCH          = 2025-10-31T06:01:25.796928
MEAN_MOTION    = 14.93985269
ECCENTRICITY   = .00462785
INCLINATION    = 98.4520
RA_OF_ASC_NODE = 256.2369
ARG_OF_PERICENTER = 17.7569
MEAN_ANOMALY   = 342.5253

EPHEMERIS_TYPE = 0
CLASSIFICATION_TYPE = U
NORAD_CAT_ID   = 38341
ELEMENT_SET_NO = 999
REV_AT_EPOCH   = 72888
BSTAR          = .4607145E-3
MEAN_MOTION_DOT = .4946E-4
MEAN_MOTION_DDOT = 0

CCSDS_OMM_VERS = 2.0
CREATION_DATE  = 
ORIGINATOR     = 

OBJECT_NAME    = SHIJIAN-16 (SJ-16)
OBJECT_ID      = 2013-057A
CENTER_NAME    = EARTH
REF_FRAME      = TEME
TIME_SYSTEM    = UTC
MEAN_ELEMENT_THEORY = SGP/SGP4

EPOCH          = 2025-10-31T06:54:17.728416
MEAN_MOTION    = 14.91750210
ECCENTRICITY   = .00160286
INCLINATION    = 74.9723
RA_OF_ASC_NODE = 69.9618
ARG_OF_PERICENTER = 64.8789
MEAN_ANOMALY   = 295.4059

EPHEMERIS_TYPE = 0
CLASSIFICATION_TYPE = U
NORAD_CAT_ID   = 39358
ELEMENT_SET_NO = 999
REV_AT_EPOCH   = 65220
BSTAR          = .33927173E-3
MEAN_MOTION_DOT = .3399E-4
MEAN_MOTION_DDOT = 0

CCSDS_OMM_VERS = 2.0
CREATION_DATE  = 
ORIGINATOR     = 

OBJECT_NAME    = SL-4 R/B
OBJECT_ID      = 2014-021B
CENTER_NAME    = EARTH
REF_FRAME      = TEME
TIME_SYSTEM    = UTC
MEAN_ELEMENT_THEORY = SGP/SGP4

EPOCH          = 2025-10-31T01:29:21.940800
MEAN_MOTION    = 15.35028480
ECCENTRICITY   = .01050792
INCLINATION    = 51.6072
RA_OF_ASC_NODE = 247.7604
ARG_OF_PERICENTER = 352.4116
MEAN_ANOMALY   = 7.5271

EPHEMERIS_TYPE = 0
CLASSIFICATION_TYPE = U
NORAD_CAT_ID   = 39679
ELEMENT_SET_NO = 999
REV_AT_EPOCH   = 63633
BSTAR          = .56697715E-3
MEAN_MOTION_DOT = .23116E-3
MEAN_MOTION_DDOT = 0

CCSDS_OMM_VERS = 2.0
CREATION_DATE  = 
ORIGINATOR     = 

OBJECT_NAME    = ALOS-2
OBJECT_ID      = 2014-029A
CENTER_NAME    = EARTH
REF_FRAME      = TEME
TIME_SYSTEM    = UTC
MEAN_ELEMENT_THEORY = SGP/SGP4

EPOCH          = 2025-10-31T06:28:08.620608
MEAN_MOTION    = 14.79461752
ECCENTRICITY   = .00011383
INCLINATION    = 97.9229
RA_OF_ASC_NODE = 39.7196
ARG_OF_PERICENTER = 99.8579
MEAN_ANOMALY   = 260.2761

EPHEMERIS_TYPE = 0
CLASSIFICATION_TYPE = U
NORAD_CAT_ID   = 39766
ELEMENT_SET_NO = 999
REV_AT_EPOCH   = 61773
BSTAR          = .38207663E-3
MEAN_MOTION_DOT = .2802E-4
MEAN_MOTION_DDOT = 0

CCSDS_OMM_VERS = 2.0
CREATION_DATE  = 
ORIGINATOR     = 

OBJECT_NAME    = YAOGAN-29
OBJECT_ID      = 2015-069A
CENTER_NAME    = EARTH
REF_FRAME      = TEME
TIME_SYSTEM    = UTC
MEAN_ELEMENT_THEORY = SGP/SGP4

EPOCH          = 2025-10-31T07:23:24.454752
MEAN_MOTION    = 14.82810822
ECCENTRICITY   = .00027092
INCLINATION    = 98.0268
RA_OF_ASC_NODE = 327.3337
ARG_OF_PERICENTER = 69.5585
MEAN_ANOMALY   = 290.5919

EPHEMERIS_TYPE = 0
CLASSIFICATION_TYPE = U
NORAD_CAT_ID   = 41038
ELEMENT_SET_NO = 999
REV_AT_EPOCH   = 53670
BSTAR          = .89402531E-4
MEAN_MOTION_DOT = .669E-5
MEAN_MOTION_DDOT = 0

CCSDS_OMM_VERS = 2.0
CREATION_DATE  = 
ORIGINATOR     = 

OBJECT_NAME    = ASTRO-H (HITOMI)
OBJECT_ID      = 2016-012A
CENTER_NAME    = EARTH
REF_FRAME      = TEME
TIME_SYSTEM    = UTC
MEAN_ELEMENT_THEORY = SGP/SGP4

EPOCH          = 2025-10-30T19:57:25.888032
MEAN_MOTION    = 15.08960943
ECCENTRICITY   = .0009834
INCLINATION    = 30.9985
RA_OF_ASC_NODE = 113.9034
ARG_OF_PERICENTER = 106.3070
MEAN_ANOMALY   = 253.8650

EPHEMERIS_TYPE = 0
CLASSIFICATION_TYPE = U
NORAD_CAT_ID   = 41337
ELEMENT_SET_NO = 999
REV_AT_EPOCH   = 53259
BSTAR          = .27634562E-3
MEAN_MOTION_DOT = .4569E-4
MEAN_MOTION_DDOT = 0

CCSDS_OMM_VERS = 2.0
CREATION_DATE  = 
ORIGINATOR     = 

OBJECT_NAME    = HXMT (HUIYAN)
OBJECT_ID      = 2017-034A
CENTER_NAME    = EARTH
REF_FRAME      = TEME
TIME_SYSTEM    = UTC
MEAN_ELEMENT_THEORY = SGP/SGP4

EPOCH          = 2025-10-31T07:00:26.501760
MEAN_MOTION    = 15.15548658
ECCENTRICITY   = .00321157
INCLINATION    = 43.0158
RA_OF_ASC_NODE = 15.0635
ARG_OF_PERICENTER = 139.1691
MEAN_ANOMALY   = 221.1571

EPHEMERIS_TYPE = 0
CLASSIFICATION_TYPE = U
NORAD_CAT_ID   = 42758
ELEMENT_SET_NO = 999
REV_AT_EPOCH   = 46289
BSTAR          = .46386422E-3
MEAN_MOTION_DOT = .8843E-4
MEAN_MOTION_DDOT = 0

CCSDS_OMM_VERS = 2.0
CREATION_DATE  = 
ORIGINATOR     = 

OBJECT_NAME    = CZ-2C R/B
OBJECT_ID      = 2018-054D
CENTER_NAME    = EARTH
REF_FRAME      = TEME
TIME_SYSTEM    = UTC
MEAN_ELEMENT_THEORY = SGP/SGP4

EPOCH          = 2025-10-30T12:59:50.220672
MEAN_MOTION    = 15.65055924
ECCENTRICITY   = .00254002
INCLINATION    = 35.1347
RA_OF_ASC_NODE = 111.7831
ARG_OF_PERICENTER = 84.6278
MEAN_ANOMALY   = 275.7349

EPHEMERIS_TYPE = 0
CLASSIFICATION_TYPE = U
NORAD_CAT_ID   = 43521
ELEMENT_SET_NO = 999
REV_AT_EPOCH   = 40826
BSTAR          = .81951204E-3
MEAN_MOTION_DOT = .85755E-3
MEAN_MOTION_DDOT = 0

CCSDS_OMM_VERS = 2.0
CREATION_DATE  = 
ORIGINATOR     = 

OBJECT_NAME    = SAOCOM 1A
OBJECT_ID      = 2018-076A
CENTER_NAME    = EARTH
REF_FRAME      = TEME
TIME_SYSTEM    = UTC
MEAN_ELEMENT_THEORY = SGP/SGP4

EPOCH          = 2025-10-31T06:36:23.391072
MEAN_MOTION    = 14.82140829
ECCENTRICITY   = .00013383
INCLINATION    = 97.8874
RA_OF_ASC_NODE = 129.3114
ARG_OF_PERICENTER = 90.2493
MEAN_ANOMALY   = 269.8873

EPHEMERIS_TYPE = 0
CLASSIFICATION_TYPE = U
NORAD_CAT_ID   = 43641
ELEMENT_SET_NO = 999
REV_AT_EPOCH   = 38219
BSTAR          = .88288582E-4
MEAN_MOTION_DOT = .65E-5
MEAN_MOTION_DDOT = 0

CCSDS_OMM_VERS = 2.0
CREATION_DATE  = 
ORIGINATOR     = 

OBJECT_NAME    = H-2A R/B
OBJECT_ID      = 2018-084L
CENTER_NAME    = EARTH
REF_FRAME      = TEME
TIME_SYSTEM    = UTC
MEAN_ELEMENT_THEORY = SGP/SGP4

EPOCH          = 2025-10-31T02:19:28.808544
MEAN_MOTION    = 15.35298667
ECCENTRICITY   = .00294407
INCLINATION    = 98.8817
RA_OF_ASC_NODE = 129.4101
ARG_OF_PERICENTER = 110.8883
MEAN_ANOMALY   = 249.5512

EPHEMERIS_TYPE = 0
CLASSIFICATION_TYPE = U
NORAD_CAT_ID   = 43682
ELEMENT_SET_NO = 999
REV_AT_EPOCH   = 38585
BSTAR          = .71776456E-3
MEAN_MOTION_DOT = .24903E-3
MEAN_MOTION_DDOT = 0

CCSDS_OMM_VERS = 2.0
CREATION_DATE  = 
ORIGINATOR     = 

OBJECT_NAME    = SAOCOM 1B
OBJECT_ID      = 2020-059A
CENTER_NAME    = EARTH
REF_FRAME      = TEME
TIME_SYSTEM    = UTC
MEAN_ELEMENT_THEORY = SGP/SGP4

EPOCH          = 2025-10-31T07:21:25.492320
MEAN_MOTION    = 14.82164714
ECCENTRICITY   = .00013539
INCLINATION    = 97.8863
RA_OF_ASC_NODE = 128.4453
ARG_OF_PERICENTER = 88.4507
MEAN_ANOMALY   = 271.6861

EPHEMERIS_TYPE = 0
CLASSIFICATION_TYPE = U
NORAD_CAT_ID   = 46265
ELEMENT_SET_NO = 999
REV_AT_EPOCH   = 27958
BSTAR          = .92553011E-4
MEAN_MOTION_DOT = .685E-5
MEAN_MOTION_DDOT = 0

CCSDS_OMM_VERS = 2.0
CREATION_DATE  = 
ORIGINATOR     = 

OBJECT_NAME    = CSS (TIANHE)
OBJECT_ID      = 2021-035A
CENTER_NAME    = EARTH
REF_FRAME      = TEME
TIME_SYSTEM    = UTC
MEAN_ELEMENT_THEORY = SGP/SGP4

EPOCH          = 2025-10-30T23:59:08.789856
MEAN_MOTION    = 15.60051747
ECCENTRICITY   = .0006963
INCLINATION    = 41.4665
RA_OF_ASC_NODE = 276.3037
ARG_OF_PERICENTER = 296.2483
MEAN_ANOMALY   = 63.7640

EPHEMERIS_TYPE = 0
CLASSIFICATION_TYPE = U
NORAD_CAT_ID   = 48274
ELEMENT_SET_NO = 999
REV_AT_EPOCH   = 25735
BSTAR          = .48594077E-3
MEAN_MOTION_DOT = .40407E-3
MEAN_MOTION_DDOT = 0

