H-2A R/B                
1 38341U 12025E   25304.25099302  .00004946  00000+0  46071-3 0  9996
2 38341  98.4520 256.2369 0046278  17.7569 342.5253 14.93985269728887
SHIJIAN-16 (SJ-16)      
1 39358U 13057A   25304.28770519  .00003399  00000+0  33927-3 0  9997
2 39358  74.9723  69.9618 0016028  64.8789 295.4059 14.91750210652209
SL-4 R/B                
1 39679U 14021B   25304.06205950  .00023116  00000+0  56698-3 0  9992
2 39679  51.6072 247.7604 0105079 352.4116   7.5271 15.35028480636330
ALOS-2                  
1 39766U 14029A   25304.26954422  .00002802  00000+0  38208-3 0  9990
2 39766  97.9229  39.7196 0001138  99.8579 260.2761 14.79461752617730
YAOGAN-29               
1 41038U 15069A   25304.30792193  .00000669  00000+0  89403-4 0  9993
2 41038  98.0268 327.3337 0002709  69.5585 290.5919 14.82810822536707
ASTRO-H (HITOMI)        
1 41337U 16012A   25303.83154963  .00004569  00000+0  27635-3 0  9999
2 41337  30.9985 113.9034 0009834 106.3070 253.8650 15.08960943532594
HXMT (HUIYAN)           
1 42758U 17034A   25304.29197340  .00008843  00000+0  46386-3 0  9992
2 42758  43.0158  15.0635 0032115 139.1691 221.1571 15.15548658462897
CZ-2C R/B               
1 43521U 18054D   25303.54155348  .00085755  00000+0  81951-3 0  9997
2 43521  35.1347 111.7831 0025400  84.6278 275.7349 15.65055924408267
SAOCOM 1A               
1 43641U 18076A   25304.27527073  .00000650  00000+0  88289-4 0  9996
2 43641  97.8874 129.3114 0001338  90.2493 269.8873 14.82140829382191
H-2A R/B                
1 43682U 18084L   25304.09686121  .00024903  00000+0  71776-3 0  9999
2 43682  98.8817 129.4101 0029440 110.8883 249.5512 15.35298667385851
SAOCOM 1B               
1 46265U 20059A   25304.30654505  .00000685  00000+0  92553-4 0  9997
2 46265  97.8863 128.4453 0001353  88.4507 271.6861 14.82164714279587
CSS (TIANHE)            
1 48274U 21035A   25303.99940729  .00040407  00000+0  48594-3 0  9995
2 48274  41.4665 276.3037 0006963 296.2483  63.7640 15.60051747257353
